HULIANWANG DIGUI-148    
1 67524U 26013C   26039.51929608  .00000004  00000+0  13384-3 0  9991
2 67524  50.0181 104.3957 0002833 153.2013 206.9030 13.83304725  2829
HULIANWANG DIGUI-149    
1 67525U 26013D   26039.51670776  .00000000  00000+0  12946-3 0  9990
2 67525  50.0175 104.3366 0001635  86.5155 273.5928 13.83671966  2821
HULIANWANG DIGUI-150    
1 67526U 26013E   26039.36624977 -.00000005  00000+0  12462-3 0  9995
2 67526  50.0180 104.9344 0003510 105.3679 254.7605 13.83594584  2828
HULIANWANG DIGUI-151    
1 67527U 26013F   26039.51069917  .00000023  00000+0  14767-3 0  9999
2 67527  50.0124 104.2601 0003801 119.5921 240.5354 13.84809384  2828
HULIANWANG DIGUI-152    
1 67528U 26013G   26039.36470613  .00000016  00000+0  14214-3 0  9991
2 67528  50.0066 104.7990 0000984  46.0388 314.0590 13.84453091  2807
HULIANWANG DIGUI-153    
1 67529U 26013H   26039.57606344 -.00000113  00000+0  27115-4 0  9991
2 67529  50.0018 103.9036 0001415  14.0972 345.9964 13.84535005  2827
HULIANWANG DIGUI-154    
1 67530U 26013J   26039.42934468  .00000085  00000+0  20185-3 0  9994
2 67530  50.0096 104.4834 0000244 334.7360  25.3524 13.85055816  2806
CZ-12 R/B               
1 67531U 26013K   26039.36351880  .00000085  00000+0  12194-3 0  9990
2 67531  49.9934 102.1142 0068796 196.8604 163.0017 14.14457886  2832
STARLINK-36587          
1 67532U 26014A   26039.62064530  .00296053  00000+0  14869-2 0  9996
2 67532  97.2825 283.0635 0001759  76.6514 283.4951 15.80927867  3992
STARLINK-36417          
1 67533U 26014B   26039.58335648  .00051700  00000+0  34565-3 0  9997
2 67533  97.2839 283.0004 0001627  80.2313  10.3094 15.75172187  4010
STARLINK-36576          
1 67534U 26014C   26039.61925636  .00150479  00000+0  77091-3 0  9998
2 67534  97.2831 283.0651 0001394  93.4253 266.7175 15.80871499  3992
STARLINK-36574          
1 67535U 26014D   26039.61797607  .00241243  00000+0  12210-2 0  9995
2 67535  97.2831 283.0666 0001794  48.6468 311.4954 15.80900277  3993
